ASTROCAST-0402          
1 55109U 23001DE  26068.80661100  .00010930  00000+0  41835-3 0  9996
2 55109  97.5556 160.6821 0004209 216.6984 143.3966 15.26734153129364
STARLINK-30077          
1 57460U 23107D   26068.11632967 -.00001259  00000+0 -36265-4 0  9996
2 57460  43.0018 338.9783 0001000 268.7747  91.2990 15.27564952145065
